CCSDS_OMM_VERS = 2.0
CREATION_DATE  = 
ORIGINATOR     = 

OBJECT_NAME    = ENVISAT
OBJECT_ID      = 2002-009A
CENTER_NAME    = EARTH
REF_FRAME      = TEME
TIME_SYSTEM    = UTC
MEAN_ELEMENT_THEORY = SGP/SGP4

EPOCH          = 2025-11-20T20:29:27.937248
MEAN_MOTION    = 14.38987629
ECCENTRICITY   = .00012386
INCLINATION    = 98.3565
RA_OF_ASC_NODE = 276.1531
ARG_OF_PERICENTER = 81.5277
MEAN_ANOMALY   = 289.6654

EPHEMERIS_TYPE = 0
CLASSIFICATION_TYPE = U
NORAD_CAT_ID   = 27386
ELEMENT_SET_NO = 999
REV_AT_EPOCH   = 24352
BSTAR          = .61996247E-4
MEAN_MOTION_DOT = .149E-5
MEAN_MOTION_DDOT = 0

CCSDS_OMM_VERS = 2.0
CREATION_DATE  = 
ORIGINATOR     = 

OBJECT_NAME    = IDEFIX & ARIANE 42P R/B
OBJECT_ID      = 2002-021B
CENTER_NAME    = EARTH
REF_FRAME      = TEME
TIME_SYSTEM    = UTC
MEAN_ELEMENT_THEORY = SGP/SGP4

EPOCH          = 2025-11-20T13:22:14.466432
MEAN_MOTION    = 14.30927078
ECCENTRICITY   = .001231
INCLINATION    = 98.5753
RA_OF_ASC_NODE = 259.5398
ARG_OF_PERICENTER = 144.2208
MEAN_ANOMALY   = 215.9802

EPHEMERIS_TYPE = 0
CLASSIFICATION_TYPE = U
NORAD_CAT_ID   = 27422
ELEMENT_SET_NO = 999
REV_AT_EPOCH   = 22841
BSTAR          = .14790012E-3
MEAN_MOTION_DOT = .345E-5
MEAN_MOTION_DDOT = 0

CCSDS_OMM_VERS = 2.0
CREATION_DATE  = 
ORIGINATOR     = 

OBJECT_NAME    = AQUA
OBJECT_ID      = 2002-022A
CENTER_NAME    = EARTH
REF_FRAME      = TEME
TIME_SYSTEM    = UTC
MEAN_ELEMENT_THEORY = SGP/SGP4

EPOCH          = 2025-11-20T22:16:23.255616
MEAN_MOTION    = 14.61733838
ECCENTRICITY   = .00005978
INCLINATION    = 98.4005
RA_OF_ASC_NODE = 285.4576
ARG_OF_PERICENTER = 71.6734
MEAN_ANOMALY   = 20.6184

EPHEMERIS_TYPE = 0
CLASSIFICATION_TYPE = U
NORAD_CAT_ID   = 27424
ELEMENT_SET_NO = 999
REV_AT_EPOCH   = 25284
BSTAR          = .23923714E-3
MEAN_MOTION_DOT = .1143E-4
MEAN_MOTION_DDOT = 0

CCSDS_OMM_VERS = 2.0
CREATION_DATE  = 
ORIGINATOR     = 

OBJECT_NAME    = CZ-4B R/B
OBJECT_ID      = 2002-024C
CENTER_NAME    = EARTH
REF_FRAME      = TEME
TIME_SYSTEM    = UTC
MEAN_ELEMENT_THEORY = SGP/SGP4

EPOCH          = 2025-11-20T15:59:57.073056
MEAN_MOTION    = 14.14521349
ECCENTRICITY   = .00496464
INCLINATION    = 98.9032
RA_OF_ASC_NODE = 13.5119
ARG_OF_PERICENTER = 333.6736
MEAN_ANOMALY   = 186.7396

EPHEMERIS_TYPE = 0
CLASSIFICATION_TYPE = U
NORAD_CAT_ID   = 27432
ELEMENT_SET_NO = 999
REV_AT_EPOCH   = 21382
BSTAR          = .57665487E-4
MEAN_MOTION_DOT = .67E-6
MEAN_MOTION_DDOT = 0

CCSDS_OMM_VERS = 2.0
CREATION_DATE  = 
ORIGINATOR     = 

OBJECT_NAME    = MIDORI II (ADEOS-II)
OBJECT_ID      = 2002-056A
CENTER_NAME    = EARTH
REF_FRAME      = TEME
TIME_SYSTEM    = UTC
MEAN_ELEMENT_THEORY = SGP/SGP4

EPOCH          = 2025-11-20T14:13:11.968032
MEAN_MOTION    = 14.29184103
ECCENTRICITY   = .00009755
INCLINATION    = 98.7602
RA_OF_ASC_NODE = 277.4367
ARG_OF_PERICENTER = 23.8637
MEAN_ANOMALY   = 336.2590

EPHEMERIS_TYPE = 0
CLASSIFICATION_TYPE = U
NORAD_CAT_ID   = 27597
ELEMENT_SET_NO = 999
REV_AT_EPOCH   = 19471
BSTAR          = .14608516E-3
MEAN_MOTION_DOT = .326E-5
MEAN_MOTION_DDOT = 0

CCSDS_OMM_VERS = 2.0
CREATION_DATE  = 
ORIGINATOR     = 

OBJECT_NAME    = H-2A R/B
OBJECT_ID      = 2002-056E
CENTER_NAME    = EARTH
REF_FRAME      = TEME
TIME_SYSTEM    = UTC
MEAN_ELEMENT_THEORY = SGP/SGP4

EPOCH          = 2025-11-20T19:55:59.911392
MEAN_MOTION    = 14.33652461
ECCENTRICITY   = .00712311
INCLINATION    = 98.3031
RA_OF_ASC_NODE = 284.4639
ARG_OF_PERICENTER = 125.4135
MEAN_ANOMALY   = 268.3223

EPHEMERIS_TYPE = 0
CLASSIFICATION_TYPE = U
NORAD_CAT_ID   = 27601
ELEMENT_SET_NO = 999
REV_AT_EPOCH   = 19851
BSTAR          = .1147298E-3
MEAN_MOTION_DOT = .286E-5
MEAN_MOTION_DDOT = 0

CCSDS_OMM_VERS = 2.0
CREATION_DATE  = 
ORIGINATOR     = 

OBJECT_NAME    = CZ-4B R/B
OBJECT_ID      = 2003-049C
CENTER_NAME    = EARTH
REF_FRAME      = TEME
TIME_SYSTEM    = UTC
MEAN_ELEMENT_THEORY = SGP/SGP4

EPOCH          = 2025-11-20T10:48:35.520768
MEAN_MOTION    = 14.54880156
ECCENTRICITY   = .00477275
INCLINATION    = 98.6770
RA_OF_ASC_NODE = 310.1743
ARG_OF_PERICENTER = 203.8638
MEAN_ANOMALY   = 156.0345

EPHEMERIS_TYPE = 0
CLASSIFICATION_TYPE = U
NORAD_CAT_ID   = 28059
ELEMENT_SET_NO = 999
REV_AT_EPOCH   = 17071
BSTAR          = .11022013E-3
MEAN_MOTION_DOT = .429E-5
MEAN_MOTION_DDOT = 0

CCSDS_OMM_VERS = 2.0
CREATION_DATE  = 
ORIGINATOR     = 

OBJECT_NAME    = CZ-2C R/B
OBJECT_ID      = 2004-012C
CENTER_NAME    = EARTH
REF_FRAME      = TEME
TIME_SYSTEM    = UTC
MEAN_ELEMENT_THEORY = SGP/SGP4

EPOCH          = 2025-11-20T09:38:57.073344
MEAN_MOTION    = 15.53534730
ECCENTRICITY   = .00182909
INCLINATION    = 97.7460
RA_OF_ASC_NODE = 15.2116
ARG_OF_PERICENTER = 356.4155
MEAN_ANOMALY   = 3.6963

EPHEMERIS_TYPE = 0
CLASSIFICATION_TYPE = U
NORAD_CAT_ID   = 28222
ELEMENT_SET_NO = 999
REV_AT_EPOCH   = 18725
BSTAR          = .52384223E-3
MEAN_MOTION_DOT = .33521E-3
MEAN_MOTION_DDOT = 0

CCSDS_OMM_VERS = 2.0
CREATION_DATE  = 
ORIGINATOR     = 

OBJECT_NAME    = SL-16 R/B
OBJECT_ID      = 2004-021B
CENTER_NAME    = EARTH
REF_FRAME      = TEME
TIME_SYSTEM    = UTC
MEAN_ELEMENT_THEORY = SGP/SGP4

EPOCH          = 2025-11-20T15:06:42.576480
MEAN_MOTION    = 14.14578901
ECCENTRICITY   = .00062916
INCLINATION    = 70.9998
RA_OF_ASC_NODE = 101.3614
ARG_OF_PERICENTER = 223.3480
MEAN_ANOMALY   = 136.7148

EPHEMERIS_TYPE = 0
CLASSIFICATION_TYPE = U
NORAD_CAT_ID   = 28353
ELEMENT_SET_NO = 999
REV_AT_EPOCH   = 10741
BSTAR          = .1685144E-3
MEAN_MOTION_DOT = .276E-5
MEAN_MOTION_DDOT = 0

CCSDS_OMM_VERS = 2.0
CREATION_DATE  = 
ORIGINATOR     = 

OBJECT_NAME    = CZ-4B R/B
OBJECT_ID      = 2004-035C
CENTER_NAME    = EARTH
REF_FRAME      = TEME
TIME_SYSTEM    = UTC
MEAN_ELEMENT_THEORY = SGP/SGP4

EPOCH          = 2025-11-20T13:04:40.888416
MEAN_MOTION    = 15.26878821
ECCENTRICITY   = .00336117
INCLINATION    = 97.3632
RA_OF_ASC_NODE = 355.1907
ARG_OF_PERICENTER = 358.6696
MEAN_ANOMALY   = 1.4448

EPHEMERIS_TYPE = 0
CLASSIFICATION_TYPE = U
NORAD_CAT_ID   = 28415
ELEMENT_SET_NO = 999
REV_AT_EPOCH   = 16324
BSTAR          = .30102839E-3
MEAN_MOTION_DOT = .8005E-4
MEAN_MOTION_DDOT = 0

CCSDS_OMM_VERS = 2.0
CREATION_DATE  = 
ORIGINATOR     = 

OBJECT_NAME    = CZ-2C R/B
OBJECT_ID      = 2004-046B
CENTER_NAME    = EARTH
REF_FRAME      = TEME
TIME_SYSTEM    = UTC
MEAN_ELEMENT_THEORY = SGP/SGP4

EPOCH          = 2025-11-20T17:32:14.827488
MEAN_MOTION    = 14.26926509
ECCENTRICITY   = .01405891
INCLINATION    = 98.1968
RA_OF_ASC_NODE = 241.4791
ARG_OF_PERICENTER = 116.8588
MEAN_ANOMALY   = 244.7046

EPHEMERIS_TYPE = 0
CLASSIFICATION_TYPE = U
NORAD_CAT_ID   = 28480
ELEMENT_SET_NO = 999
REV_AT_EPOCH   = 9296
BSTAR          = .82857977E-4
MEAN_MOTION_DOT = .184E-5
MEAN_MOTION_DDOT = 0

CCSDS_OMM_VERS = 2.0
CREATION_DATE  = 
ORIGINATOR     = 

OBJECT_NAME    = ARIANE 5 R/B
OBJECT_ID      = 2004-049H
CENTER_NAME    = EARTH
REF_FRAME      = TEME
TIME_SYSTEM    = UTC
MEAN_ELEMENT_THEORY = SGP/SGP4

EPOCH          = 2025-11-20T09:59:55.523904
MEAN_MOTION    = 14.84943386
ECCENTRICITY   = .00843776
INCLINATION    = 98.2519
RA_OF_ASC_NODE = 123.9001
ARG_OF_PERICENTER = 346.0546
MEAN_ANOMALY   = 13.8338

EPHEMERIS_TYPE = 0
CLASSIFICATION_TYPE = U
NORAD_CAT_ID   = 28499
ELEMENT_SET_NO = 999
REV_AT_EPOCH   = 12957
BSTAR          = .11071614E-3
MEAN_MOTION_DOT = .939E-5
MEAN_MOTION_DDOT = 0

